STARLINK-1361           
1 45567U 20025AN  22299.08961283  .00000277  00000+0  37473-4 0  9990
2 45567  53.0549 210.9854 0001495  81.4073 278.7086 15.06400019139283
STARLINK-1363           
1 45568U 20025AP  22299.17073300  .00000096  00000+0  25367-4 0  9993
2 45568  53.0553 210.8802 0001580  75.8119 284.3045 15.06395448139292
STARLINK-1366           
1 45569U 20025AQ  22299.15964924  .00000982  00000+0  84847-4 0  9995
2 45569  53.0554 210.6879 0001611  63.9511 296.1644 15.06396008139294
STARLINK-1376           
1 45570U 20025AR  22299.15227190  .00000516  00000+0  53520-4 0  9991
2 45570  53.0548 210.7087 0001356  73.3418 286.7720 15.06399542139294
STARLINK-1261           
1 45571U 20025AS  22299.16794834 -.00000172  00000+0  73788-5 0  9995
2 45571  53.0553 200.6316 0001462  88.1046 272.0110 15.06390498139442
STARLINK-1320           
1 45572U 20025AT  22299.42596039 -.00000722  00000+0 -29608-4 0  9995
2 45572  53.0544 199.4900 0001443  86.4637 273.6517 15.06387948139470
STARLINK-1321           
1 45573U 20025AU  22298.80672535  .00002287  00000+0  17245-3 0  9992
2 45573  53.0529 202.2746 0001549  88.8050 271.3117 15.06388518139685
STARLINK-1324           
1 45574U 20025AV  22299.16425219 -.00000114  00000+0  11246-4 0  9992
2 45574  53.0555 200.6499 0001416  72.0670 288.0473 15.06397236139449
STARLINK-1326           
1 45575U 20025AW  22298.86159487  .00025647  00000+0  11789-2 0  9997
2 45575  52.9925 179.8299 0003694 152.1045 208.0148 15.20219308140273
STARLINK-1328           
1 45576U 20025AX  22299.12371943  .00002061  00000+0  15731-3 0  9998
2 45576  53.0563 200.8513 0001540  78.9845 281.1317 15.06383665139437
STARLINK-1330           
1 45577U 20025AY  22298.15433506  .00015687  00000+0  99228-3 0  9996
2 45577  53.0537 204.5419 0002594 114.7745 245.3515 15.09177377139282
STARLINK-1331           
1 45578U 20025AZ  22299.11634492 -.00000323  00000+0 -27790-5 0  9991
2 45578  53.0558 200.8745 0001400  87.3249 272.7901 15.06393145139436
STARLINK-1332           
1 45579U 20025BA  22299.32275937 -.00002006  00000+0 -11583-3 0  9991
2 45579  53.0548 160.1058 0001498 122.9120 237.2013 15.06401196140036
STARLINK-1333           
1 45580U 20025BB  22299.45453405 -.00000200  00000+0  54857-5 0  9991
2 45580  53.0557 209.3495 0001510  88.4799 271.6363 15.06374823139340
STARLINK-1335           
1 45581U 20025BC  22299.12739045  .00000406  00000+0  46159-4 0  9995
2 45581  53.0548 200.8253 0001512  83.2672 276.8489 15.06398037139433
STARLINK-1337           
1 45582U 20025BD  22299.14951524  .00006363  00000+0  44570-3 0  9998
2 45582  53.0536 200.7385 0001761  50.8369 309.2777 15.06398914139430
STARLINK-1340           
1 45583U 20025BE  22298.46761797 -.00002568  00000+0 -15358-3 0  9991
2 45583  53.0561 203.7943 0001660  61.6889 298.4267 15.06388671139338
STARLINK-1343           
1 45584U 20025BF  22299.11907544 -.00000466  00000+0 -12394-4 0  9990
2 45584  53.0552 200.8665 0001281  81.7458 278.3676 15.06399039139434
STARLINK-1347           
1 45586U 20025BH  22299.14213313 -.00000106  00000+0  11788-4 0  9995
2 45586  53.0550 200.7708 0001463  94.6994 265.4162 15.06401244139429
STARLINK-1349           
1 45587U 20025BJ  22299.11265590 -.00000004  00000+0  18637-4 0  9994
2 45587  53.0545 200.9015 0001468  86.2627 273.8530 15.06392838139433
STARLINK-1360           
1 45588U 20025BK  22299.42227692  .00001039  00000+0  88663-4 0  9994
2 45588  53.0533 199.5042 0001347  83.8058 276.3084 15.06385280139470
STARLINK-1364           
1 45589U 20025BL  22299.08685714 -.00002614  00000+0 -15669-3 0  9997
2 45589  53.0556 201.0179 0001396  75.6336 284.4808 15.06393785139426
STARLINK-1365           
1 45590U 20025BM  22299.16886043  .00001505  00000+0  11996-3 0  9991
2 45590  53.0540 230.6433 0002316  52.4129 307.7070 15.06396554139021
XINGYUN-2 01            
1 45602U 20028A   22299.50615297  .00001481  00000+0  11714-3 0  9998
2 45602  97.4632 312.1323 0012190  87.3698 272.8920 15.02034667134629
XINGYUN-2 02            
1 45603U 20028B   22299.48357413  .00000744  00000+0  61369-4 0  9992
2 45603  97.5385 316.0776 0013942 112.4477 247.8235 15.01864045134623
ULTP                    
1 45605U 20011D   22298.82567439  .00008593  00000+0  25647-3 0  9992
2 45605  51.6433 176.8735 0004594 301.4685  58.5849 15.35429147137078
COSMOS 2546             
1 45608U 20031A   22297.99544146 -.00000434  00000+0  00000+0 0  9993
2 45608  63.2305 208.5630 6620214 267.2660 301.6055  2.00607303 17759
XJS G                   
1 45611U 20032A   22299.21582020  .00010028  00000+0  25303-3 0  9994
2 45611  35.0336 328.1691 0010334 202.5788 157.4479 15.38988488134863
XJS H                   
1 45612U 20032B   22299.21417788  .00014789  00000+0  36744-3 0  9992
2 45612  35.0345 328.1704 0009755 192.2163 167.8322 15.39401219134861
HEAD-4                  
1 45624U 20034A   22299.39410150  .00013713  00000+0  44269-3 0  9999
2 45624  97.3997  80.9692 0012511  56.5492  28.2036 15.32169186133934
GAOFEN 9-02             
1 45625U 20034B   22299.39641047  .00006012  00000+0  25444-3 0  9999
2 45625  97.4068  77.5719 0012404  66.5672  17.5629 15.23492205133670
STARLINK-1441           
1 45658U 20035B   22299.07672409  .00001729  00000+0  13496-3 0  9991
2 45658  53.0549 191.0522 0001373  76.6263 283.4879 15.06384119132847
STARLINK-1442           
1 45659U 20035C   22299.07946868 -.00001871  00000+0 -10680-3 0  9997
2 45659  53.0529 191.0511 0001575 123.7837 236.3302 15.06387268132845
STARLINK-1443           
1 45660U 20035D   22299.41951860  .00001405  00000+0  11321-3 0  9999
2 45660  53.0550 189.5228 0001449  88.3261 271.7894 15.06384469132899
STARLINK-1444           
1 45661U 20035E   22299.10621233 -.00002107  00000+0 -12263-3 0  9992
2 45661  53.0542 190.9341 0001422  91.0649 269.0503 15.06392641132837
STARLINK-1445           
1 45662U 20035F   22299.12094642  .00003713  00000+0  26810-3 0  9998
2 45662  53.0551 190.8622 0001543  72.1951 287.9206 15.06393631132894
STARLINK-1446           
1 45663U 20035G   22299.39002565 -.00000125  00000+0  10498-4 0  9992
2 45663  53.0545 189.6375 0001535  97.1589 262.9575 15.06391416132884
STARLINK-1448           
1 45665U 20035J   22299.09145913 -.00001008  00000+0 -48806-4 0  9992
2 45665  53.0551 190.9986 0001440  89.4107 270.7047 15.06394540132849
STARLINK-1449           
1 45666U 20035K   22299.09513455 -.00006478  00000+0 -41639-3 0  9995
2 45666  53.0538 190.9520 0001202  91.6015 268.5112 15.06397569132840
STARLINK-1450           
1 45667U 20035L   22299.09789577 -.00000486  00000+0 -13754-4 0  9997
2 45667  53.0561 190.9912 0001514  85.6621 274.4541 15.06392098132893
STARLINK-1451           
1 45668U 20035M   22299.06472112 -.00002258  00000+0 -13278-3 0  9998
2 45668  53.0551 191.1202 0001379  74.0152 286.0988 15.06387471132846
STARLINK-1452           
1 45669U 20035N   22298.84818681 -.00000255  00000+0  17674-5 0  9999
2 45669  53.0551 192.0774 0001352 109.3395 250.7740 15.06396633133219
STARLINK-1453           
1 45670U 20035P   22298.83989431 -.00000605  00000+0 -21738-4 0  9997
2 45670  53.0536 162.1278 0001443 100.3328 259.7823 15.06396629133529
STARLINK-1454           
1 45671U 20035Q   22299.11726006 -.00000944  00000+0 -44505-4 0  9990
2 45671  53.0552 190.8689 0001383  95.2642 264.8504 15.06401672132848
STARLINK-1455           
1 45672U 20035R   22298.86203231  .00036327  00000+0  24462-2 0  9992
2 45672  53.0531 162.0300 0001621  64.8709 295.2448 15.06383411133631
STARLINK-1456           
1 45673U 20035S   22299.39740521 -.00002903  00000+0 -17618-3 0  9991
2 45673  53.0559 189.6198 0001239  95.3289 264.7842 15.06383535132892
STARLINK-1457           
1 45674U 20035T   22299.13938489  .00000046  00000+0  22023-4 0  9997
2 45674  53.0552 190.7745 0001456  93.9800 266.1356 15.06386649132863
STARLINK-1458           
1 45675U 20035U   22298.99561003 -.00001178  00000+0 -60218-4 0  9992
2 45675  53.0556 191.4333 0001547  66.1485 293.9666 15.06397211132826
STARLINK-1460           
1 45676U 20035V   22299.43056781  .00000437  00000+0  48266-4 0  9999
2 45676  53.0545 189.4774 0001504  89.9731 270.1430 15.06398267132896
STARLINK-1392           
1 45677U 20035W   22298.71178907  .00000046  00000+0  21995-4 0  9991
2 45677  53.0560 192.6927 0001282 100.9933 259.1200 15.06404828133198
STARLINK-1393           
1 45678U 20035X   22299.10343162 -.00001110  00000+0 -55650-4 0  9993
2 45678  53.0561 180.9466 0001142  81.2615 278.8504 15.06404889132989
STARLINK-1394           
1 45679U 20035Y   22298.90808444 -.00002351  00000+0 -13903-3 0  9992
2 45679  53.0539 181.8151 0001460  97.2344 262.8811 15.06395932132965
STARLINK-1395           
1 45680U 20035Z   22299.11449939 -.00000588  00000+0 -20558-4 0  9993
2 45680  53.0540 180.8974 0001568  88.9423 271.1745 15.06404095132987
STARLINK-1396           
1 45681U 20035AA  22298.84542823 -.00000559  00000+0 -18627-4 0  9991
2 45681  53.0552 182.1009 0001377  99.4653 260.6492 15.06388140133351
STARLINK-1397           
1 45682U 20035AB  22298.85280465 -.00001035  00000+0 -50650-4 0  9996
2 45682  53.0561 182.0638 0001388 107.0660 253.0481 15.06385813133342
STARLINK-1399           
1 45683U 20035AC  22299.09974628 -.00000662  00000+0 -25532-4 0  9991
2 45683  53.0536 180.9394 0001329  93.9774 266.1366 15.06400567132985
STARLINK-1401           
1 45684U 20035AD  22299.07763483  .00000021  00000+0  20339-4 0  9992
2 45684  53.0551 181.0558 0001584  77.6071 282.5095 15.06394825132989
STARLINK-1402           
1 45685U 20035AE  22298.80856247 -.00001153  00000+0 -58547-4 0  9995
2 45685  53.0542 182.2686 0001396  87.7278 272.3871 15.06394517133356
STARLINK-1404           
1 45686U 20035AF  22299.06658941  .00000206  00000+0  32770-4 0  9992
2 45686  53.0546 181.0979 0001490 109.4519 250.6631 15.06378199132987
